CTC1_L_00107016-03
1 62005U 24417YP  26037.47802083  .00000000  00000+0  00000-0 0  9990
2 62005  50.0000 180.0000 0000000   0.0000   0.0000 14.33516502    10
CTC1_L_00107016-04
1 62006U 25397AI  26037.47802083  .00000000  00000+0  00000-0 0  9999
2 62006  50.0000 180.0000 0000000   0.0000  90.0000 14.33516502    10
CTC1_L_00107017-01
1 62007U 22089RA  26037.47802083  .00000000  00000+0  00000-0 0  9995
2 62007  50.0000 192.0000 0000000   0.0000 192.0000 14.33516502    17
CTC1_L_00107017-02
1 62008U 26500SV  26037.47802083  .00000000  00000+0  00000-0 0  9998
2 62008  50.0000 192.0000 0000000   0.0000 282.0000 14.33516502    18
CTC1_L_00107017-03
1 62009U 25964CA  26037.47802083  .00000000  00000+0  00000-0 0  9992
2 62009  50.0000 192.0000 0000000   0.0000  12.0000 14.33516502    10
CTC1_L_00107017-04
1 62010U 23535MV  26037.47802083  .00000000  00000+0  00000-0 0  9996
2 62010  50.0000 192.0000 0000000   0.0000 102.0000 14.33516502    12
CTC1_L_00107018-01
1 62011U 25624TK  26037.47802083  .00000000  00000+0  00000-0 0  9998
2 62011  50.0000 204.0000 0000000   0.0000 204.0000 14.33516502    10
CTC1_L_00107018-02
1 62012U 24043OU  26037.47802083  .00000000  00000+0  00000-0 0  9993
2 62012  50.0000 204.0000 0000000   0.0000 294.0000 14.33516502    10
CTC1_L_00107018-03
1 62013U 26280MK  26037.47802083  .00000000  00000+0  00000-0 0  9999
2 62013  50.0000 204.0000 0000000   0.0000  24.0000 14.33516502    12
CTC1_L_00107018-04
1 62014U 24665XI  26037.47802083  .00000000  00000+0  00000-0 0  9995
2 62014  50.0000 204.0000 0000000   0.0000 114.0000 14.33516502    13
CTC1_L_00107019-01
1 62015U 25738HI  26037.47802083  .00000000  00000+0  00000-0 0  9998
2 62015  50.0000 216.0000 0000000   0.0000 216.0000 14.33516502    10
CTC1_L_00107019-02
1 62016U 24708PZ  26037.47802083  .00000000  00000+0  00000-0 0  9995
2 62016  50.0000 216.0000 0000000   0.0000 306.0000 14.33516502    11
CTC1_L_00107019-03
1 62017U 23687HA  26037.47802083  .00000000  00000+0  00000-0 0  9991
2 62017  50.0000 216.0000 0000000   0.0000  36.0000 14.33516502    12
CTC1_L_00107019-04
1 62018U 22582XS  26037.47802083  .00000000  00000+0  00000-0 0  9995
2 62018  50.0000 216.0000 0000000   0.0000 126.0000 14.33516502    13
CTC1_L_00107020-01
1 62019U 25118IQ  26037.47802083  .00000000  00000+0  00000-0 0  9994
2 62019  50.0000 228.0000 0000000   0.0000 228.0000 14.33516502    10
CTC1_L_00107020-02
1 62020U 26743OF  26037.47802083  .00000000  00000+0  00000-0 0  9991
2 62020  50.0000 228.0000 0000000   0.0000 318.0000 14.33516502    12
CTC1_L_00107020-03
1 62021U 24914YH  26037.47802083  .00000000  00000+0  00000-0 0  9990
2 62021  50.0000 228.0000 0000000   0.0000  48.0000 14.33516502    13
CTC1_L_00107020-04
1 62022U 23520PL  26037.47802083  .00000000  00000+0  00000-0 0  9993
2 62022  50.0000 228.0000 0000000   0.0000 138.0000 14.33516502    14
CTC1_L_00107021-01
1 62023U 25438JY  26037.47802083  .00000000  00000+0  00000-0 0  9994
2 62023  50.0000 240.0000 0000000   0.0000 240.0000 14.33516502    13
CTC1_L_00107021-02
1 62024U 22433VJ  26037.47802083  .00000000  00000+0  00000-0 0  9997
2 62024  50.0000 240.0000 0000000   0.0000 330.0000 14.33516502    14
CTC1_L_00107021-03
1 62025U 23257OY  26037.47802083  .00000000  00000+0  00000-0 0  9993
2 62025  50.0000 240.0000 0000000   0.0000  60.0000 14.33516502    15
CTC1_L_00107021-04
1 62026U 25470AH  26037.47802083  .00000000  00000+0  00000-0 0  9993
2 62026  50.0000 240.0000 0000000   0.0000 150.0000 14.33516502    16
CTC1_L_00107022-01
1 62027U 22453J   26037.47802083  .00000000  00000+0  00000-0 0  9992
2 62027  50.0000 252.0000 0000000   0.0000 252.0000 14.33516502    13
CTC1_L_00107022-02
1 62028U 24011LD  26037.47802083  .00000000  00000+0  00000-0 0  9995
2 62028  50.0000 252.0000 0000000   0.0000 342.0000 14.33516502    14
CTC1_L_00107022-03
1 62029U 25550OW  26037.47802083  .00000000  00000+0  00000-0 0  9995
2 62029  50.0000 252.0000 0000000   0.0000  72.0000 14.33516502    15
CTC1_L_00107022-04
1 62030U 25120AP  26037.47802083  .00000000  00000+0  00000-0 0  9990
2 62030  50.0000 252.0000 0000000   0.0000 162.0000 14.33516502    17
CTC1_L_00107023-01
1 62031U 23933YA  26037.47802083  .00000000  00000+0  00000-0 0  9991
2 62031  50.0000 264.0000 0000000   0.0000 264.0000 14.33516502    14
CTC1_L_00107023-02
1 62032U 25630AC  26037.47802083  .00000000  00000+0  00000-0 0  9998
2 62032  50.0000 264.0000 0000000   0.0000 354.0000 14.33516502    15
CTC1_L_00107023-03
1 62033U 25362ME  26037.47802083  .00000000  00000+0  00000-0 0  9991
2 62033  50.0000 264.0000 0000000   0.0000  84.0000 14.33516502    16
CTC1_L_00107023-04
1 62034U 23099FJ  26037.47802083  .00000000  00000+0  00000-0 0  9997
2 62034  50.0000 264.0000 0000000   0.0000 174.0000 14.33516502    17
CTC1_L_00107024-01
1 62035U 23278AC  26037.47802083  .00000000  00000+0  00000-0 0  9997
2 62035  50.0000 276.0000 0000000   0.0000 276.0000 14.33516502    14
CTC1_L_00107024-02
1 62036U 25664TJ  26037.47802083  .00000000  00000+0  00000-0 0  9999
2 62036  50.0000 276.0000 0000000   0.0000   6.0000 14.33516502    16
CTC1_L_00107024-03
1 62037U 25639XI  26037.47802083  .00000000  00000+0  00000-0 0  9992
2 62037  50.0000 276.0000 0000000   0.0000  96.0000 14.33516502    16
CTC1_L_00107024-04
1 62038U 25652RI  26037.47802083  .00000000  00000+0  00000-0 0  9998
2 62038  50.0000 276.0000 0000000   0.0000 186.0000 14.33516502    17
CTC1_L_00107025-01
1 62039U 22532HK  26037.47802083  .00000000  00000+0  00000-0 0  9993
2 62039  50.0000 288.0000 0000000   0.0000 288.0000 14.33516502    14
CTC1_L_00107025-02
1 62040U 26917MQ  26037.47802083  .00000000  00000+0  00000-0 0  9996
2 62040  50.0000 288.0000 0000000   0.0000  18.0000 14.33516502    17
CTC1_L_00107025-03
1 62041U 26773CE  26037.47802083  .00000000  00000+0  00000-0 0  9997
2 62041  50.0000 288.0000 0000000   0.0000 108.0000 14.33516502    18
CTC1_L_00107025-04
1 62042U 22710IO  26037.47802083  .00000000  00000+0  00000-0 0  9995
2 62042  50.0000 288.0000 0000000   0.0000 198.0000 14.33516502    18
CTC1_L_00107026-01
1 62043U 23749TD  26037.47802083  .00000000  00000+0  00000-0 0  9999
2 62043  50.0000 300.0000 0000000   0.0000 300.0000 14.33516502    19
CTC1_L_00107026-02
1 62044U 26389UZ  26037.47802083  .00000000  00000+0  00000-0 0  9993
2 62044  50.0000 300.0000 0000000   0.0000  30.0000 14.33516502    10
CTC1_L_00107026-03
1 62045U 26011PA  26037.47802083  .00000000  00000+0  00000-0 0  9996
2 62045  50.0000 300.0000 0000000   0.0000 120.0000 14.33516502    11
CTC1_L_00107026-04
1 62046U 25707WF  26037.47802083  .00000000  00000+0  00000-0 0  9998
2 62046  50.0000 300.0000 0000000   0.0000 210.0000 14.33516502    12
CTC1_L_00107027-01
1 62047U 22238NC  26037.47802083  .00000000  00000+0  00000-0 0  9995
2 62047  50.0000 312.0000 0000000   0.0000 312.0000 14.33516502    19
CTC1_L_00107027-02
1 62048U 26283TB  26037.47802083  .00000000  00000+0  00000-0 0  9990
2 62048  50.0000 312.0000 0000000   0.0000  42.0000 14.33516502    10
CTC1_L_00107027-03
1 62049U 22325RH  26037.47802083  .00000000  00000+0  00000-0 0  9994
2 62049  50.0000 312.0000 0000000   0.0000 132.0000 14.33516502    11
CTC1_L_00107027-04
1 62050U 26285DR  26037.47802083  .00000000  00000+0  00000-0 0  9995
2 62050  50.0000 312.0000 0000000   0.0000 222.0000 14.33516502    13
CTC1_L_00107028-01
1 62051U 24304WE  26037.47802083  .00000000  00000+0  00000-0 0  9996
2 62051  50.0000 324.0000 0000000   0.0000 324.0000 14.33516502    10
CTC1_L_00107028-02
1 62052U 23007GO  26037.47802083  .00000000  00000+0  00000-0 0  9996
2 62052  50.0000 324.0000 0000000   0.0000  54.0000 14.33516502    11
CTC1_L_00107028-03
1 62053U 26697MR  26037.47802083  .00000000  00000+0  00000-0 0  9995
2 62053  50.0000 324.0000 0000000   0.0000 144.0000 14.33516502    12
CTC1_L_00107028-04
1 62054U 23458R   26037.47802083  .00000000  00000+0  00000-0 0  9998
2 62054  50.0000 324.0000 0000000   0.0000 234.0000 14.33516502    13
CTC1_L_00107029-01
1 62055U 22418TR  26037.47802083  .00000000  00000+0  00000-0 0  9994
2 62055  50.0000 336.0000 0000000   0.0000 336.0000 14.33516502    10
CTC1_L_00107029-02
1 62056U 22970V   26037.47802083  .00000000  00000+0  00000-0 0  9998
2 62056  50.0000 336.0000 0000000   0.0000  66.0000 14.33516502    11
CTC1_L_00107029-03
1 62057U 23806OQ  26037.47802083  .00000000  00000+0  00000-0 0  9998
2 62057  50.0000 336.0000 0000000   0.0000 156.0000 14.33516502    12
CTC1_L_00107029-04
1 62058U 25893FT  26037.47802083  .00000000  00000+0  00000-0 0  9997
2 62058  50.0000 336.0000 0000000   0.0000 246.0000 14.33516502    13
CTC1_L_00107030-01
1 62059U 25164KV  26037.47802083  .00000000  00000+0  00000-0 0  9999
2 62059  50.0000 348.0000 0000000   0.0000 348.0000 14.33516502    10
CTC1_L_00107030-02
1 62060U 26340PH  26037.47802083  .00000000  00000+0  00000-0 0  9998
2 62060  50.0000 348.0000 0000000   0.0000  78.0000 14.33516502    12
CTC1_L_00107030-03
1 62061U 26235RM  26037.47802083  .00000000  00000+0  00000-0 0  9992
2 62061  50.0000 348.0000 0000000   0.0000 168.0000 14.33516502    13
CTC1_L_00107030-04
1 62062U 26622DV  26037.47802083  .00000000  00000+0  00000-0 0  9993
2 62062  50.0000 348.0000 0000000   0.0000 258.0000 14.33516502    14
